OBJECT_NAME,OBJECT_ID,EPOCH,MEAN_MOTION,ECCENTRICITY,INCLINATION,RA_OF_ASC_NODE,ARG_OF_PERICENTER,MEAN_ANOMALY,EPHEMERIS_TYPE,CLASSIFICATION_TYPE,NORAD_CAT_ID,ELEMENT_SET_NO,REV_AT_EPOCH,BSTAR,MEAN_MOTION_DOT,MEAN_MOTION_DDOT
SIRION PATHFINDER-2,2018-099B,2026-06-26T16:41:18.753216,15.14627414,.0007112,97.4251,226.5266,264.2955,95.7466,0,U,43759,999,41406,.27128E-3,.495E-4,0
CORVUS BC4,2018-099K,2026-06-26T13:58:50.840832,15.12565566,.0007261,97.4066,220.2876,339.9581,20.1364,0,U,43767,999,41382,.25694E-3,.442E-4,0
M2 PATHFINDER,2020-037E,2026-06-26T11:45:30.553344,15.04708030,.00125635,97.8135,8.8257,119.4503,240.7978,0,U,45727,999,32689,.21204607E-3,.2926E-4,0
NETSAT-4,2020-068U,2026-06-26T04:45:10.700928,15.44149820,.00031685,97.8601,186.1637,289.3785,70.7119,0,U,46504,999,31716,.42746823E-3,.19512E-3,0
NETSAT-3,2020-068V,2026-06-26T06:37:30.619776,15.42978668,.00031311,97.8652,184.4532,318.1999,41.9007,0,U,46505,999,31708,.46732913E-3,.20517E-3,0
NETSAT-1,2020-068W,2026-06-26T06:19:14.733408,15.34840028,.00039027,97.8742,178.6632,2.5836,357.5425,0,U,46506,999,31669,.40195216E-3,.13502E-3,0
NETSAT-2,2020-068X,2026-06-26T11:37:20.299872,15.46383273,.00019755,97.8613,186.4021,351.4742,8.6472,0,U,46507,999,31717,.4383613E-3,.21599E-3,0
GREENCUBE (IO-117),2022-080E,2026-06-25T17:51:47.627136,6.42583224,.00089751,70.1444,295.2691,287.7502,72.2178,0,U,53109,999,9261,0,-.3E-7,0
SITRO-AIS 5 (KATYS),2023-091L,2026-06-26T14:54:50.334624,15.29662826,.00124112,97.5063,241.6111,74.2060,286.0547,0,U,57176,999,16578,.41861798E-3,.11987E-3,0
SITRO-AIS 6 (CHIRKIN),2023-091AC,2026-06-26T13:21:34.767360,15.26105071,.00128643,97.5070,240.6148,77.5614,282.7062,0,U,57192,999,16571,.39103043E-3,.10039E-3,0
SITRO-AIS 8 (ANOKHIN),2023-091AD,2026-06-26T14:55:27.573024,15.32378875,.00113496,97.5059,243.2388,70.6472,289.5995,0,U,57193,999,16589,.46206848E-3,.14405E-3,0
SITRO-AIS 7 (FARTUSHNIY),2023-091AE,2026-06-26T13:28:53.180832,15.25789615,.00127594,97.5068,240.4401,78.5329,281.7341,0,U,57194,999,16570,.39342086E-3,.10005E-3,0
SITRO-AIS 10 (BURDAEV),2023-091AK,2026-06-26T13:09:42.989472,15.38951162,.00066961,97.5084,248.3155,51.5264,308.6580,0,U,57199,999,16620,.49453259E-3,.19018E-3,0
SITRO-AIS 9 (SHCHUKIN),2023-091AM,2026-06-26T12:18:24.734592,15.38449794,.00069927,97.5083,248.0017,51.6988,308.4885,0,U,57201,999,16618,.4861463E-3,.18391E-3,0
SITRO-AIS 12 (SMIRENNIY),2023-091AQ,2026-06-26T13:35:59.472384,15.38744981,.00064668,97.5095,248.5299,46.2913,313.8867,0,U,57204,999,16621,.48192901E-3,.18404E-3,0
SITRO-AIS 11 (SHEFFER),2023-091AU,2026-06-26T13:51:33.440832,15.39175463,.00063394,97.5094,248.7935,45.8256,314.3510,0,U,57208,999,16623,.47341336E-3,.18333E-3,0
SITRO-AIS 25,2024-039R,2026-06-26T14:55:32.405376,14.93556064,.01425964,95.3909,241.5759,295.3895,63.2625,0,U,59066,999,12613,.1822098E-3,.2309E-4,0
SITRO-AIS 26,2024-039S,2026-06-26T11:46:23.814624,14.93349585,.01429576,95.3909,241.3814,296.4522,62.2096,0,U,59067,999,12610,.17997419E-3,.2269E-4,0
SITRO-AIS 27,2024-039T,2026-06-26T14:12:43.399008,14.93771692,.01418838,95.3913,241.7271,294.6600,63.9906,0,U,59068,999,12614,.24225911E-3,.3095E-4,0
SITRO-AIS 28,2024-039U,2026-06-26T15:16:23.479104,14.93803750,.01418874,95.3910,241.8054,294.3291,64.3175,0,U,59071,999,12615,.20674751E-3,.2638E-4,0
GRBBETA,2024-128C,2026-06-26T13:52:03.578016,15.06690888,.00394513,61.9878,183.3174,136.6258,223.7951,0,U,60237,999,10768,.22892756E-3,.3256E-4,0
OOV-CUBE (TUBSAT-30),2024-128F,2026-06-26T07:18:12.045312,15.02804000,.00434971,61.9924,193.7808,135.8027,224.6553,0,U,60240,999,10748,.13798353E-3,.1677E-4,0
ROBUSTA-3A (MEDITERRANEE),2024-128J,2026-06-26T07:53:52.289088,15.11754630,.0040139,61.9842,175.9128,130.0414,230.4214,0,U,60243,999,10780,.33330606E-3,.5597E-4,0
LASARSAT,2024-247Q,2026-06-26T12:50:50.697600,15.46893107,.00071943,44.9728,209.6637,27.8989,332.2285,0,U,62391,999,8476,.57324809E-3,.29264E-3,0
CROCUBE,2024-247T,2026-06-24T09:26:02.551776,15.48681185,.00072263,44.9701,218.9251,18.8099,341.3058,0,U,62394,999,8446,.56516968E-3,.30725E-3,0
FORESAIL-1 PRIME,2025-276DS,2026-06-26T16:21:50.226912,15.18782211,.0003907,97.4202,250.7789,84.1634,276.0046,0,U,66778,999,3184,.2493E-3,.5118E-4,0
KNACKSAT-2,1998-067XZ,2026-06-26T10:40:36.323040,15.60782463,.0008675,51.6280,247.8833,257.0459,102.9566,0,U,67683,999,2172,.58452E-3,.49509E-3,0
